<?xml version="1.0" encoding="UTF-8"?>
<gpx version="1.1" creator="Shadowbot" xmlns="http://www.topografix.com/GPX/1/1">
  <wpt lat="38.8976387" lon="-77.0365525"><name>Origin</name></wpt>
  <wpt lat="38.889813" lon="-77.0090208"><name>Destination</name></wpt>
  <trk>
    <name>Route</name>
    <trkseg>
      <trkpt lat="38.897394" lon="-77.036554" />
      <trkpt lat="38.897393" lon="-77.03662" />
      <trkpt lat="38.897382" lon="-77.036706" />
      <trkpt lat="38.897366" lon="-77.036774" />
      <trkpt lat="38.897322" lon="-77.036903" />
      <trkpt lat="38.897283" lon="-77.036991" />
      <trkpt lat="38.897245" lon="-77.037051" />
      <trkpt lat="38.897206" lon="-77.037102" />
      <trkpt lat="38.897171" lon="-77.037146" />
      <trkpt lat="38.897108" lon="-77.0372" />
      <trkpt lat="38.89705" lon="-77.037243" />
      <trkpt lat="38.896993" lon="-77.037275" />
      <trkpt lat="38.896929" lon="-77.037304" />
      <trkpt lat="38.896854" lon="-77.037323" />
      <trkpt lat="38.896739" lon="-77.037377" />
      <trkpt lat="38.896655" lon="-77.037423" />
      <trkpt lat="38.896592" lon="-77.037466" />
      <trkpt lat="38.896554" lon="-77.037501" />
      <trkpt lat="38.896521" lon="-77.03754" />
      <trkpt lat="38.896482" lon="-77.037601" />
      <trkpt lat="38.896428" lon="-77.037689" />
      <trkpt lat="38.896424" lon="-77.037805" />
      <trkpt lat="38.896424" lon="-77.037853" />
      <trkpt lat="38.896424" lon="-77.037869" />
      <trkpt lat="38.896429" lon="-77.037988" />
      <trkpt lat="38.896475" lon="-77.037977" />
      <trkpt lat="38.896562" lon="-77.037976" />
      <trkpt lat="38.896583" lon="-77.037977" />
      <trkpt lat="38.896615" lon="-77.037976" />
      <trkpt lat="38.896627" lon="-77.037976" />
      <trkpt lat="38.897143" lon="-77.037979" />
      <trkpt lat="38.897194" lon="-77.037978" />
      <trkpt lat="38.897205" lon="-77.037978" />
      <trkpt lat="38.897216" lon="-77.037978" />
      <trkpt lat="38.897226" lon="-77.037978" />
      <trkpt lat="38.897225" lon="-77.038094" />
      <trkpt lat="38.897224" lon="-77.038216" />
      <trkpt lat="38.897225" lon="-77.038289" />
      <trkpt lat="38.897234" lon="-77.039136" />
      <trkpt lat="38.897234" lon="-77.039294" />
      <trkpt lat="38.897233" lon="-77.039328" />
      <trkpt lat="38.897233" lon="-77.039365" />
      <trkpt lat="38.897231" lon="-77.039465" />
      <trkpt lat="38.896924" lon="-77.039464" />
      <trkpt lat="38.896508" lon="-77.039467" />
      <trkpt lat="38.896416" lon="-77.039467" />
      <trkpt lat="38.896309" lon="-77.039465" />
      <trkpt lat="38.896022" lon="-77.039466" />
      <trkpt lat="38.895516" lon="-77.039469" />
      <trkpt lat="38.895409" lon="-77.039471" />
      <trkpt lat="38.89531" lon="-77.039472" />
      <trkpt lat="38.895227" lon="-77.039472" />
      <trkpt lat="38.894522" lon="-77.039472" />
      <trkpt lat="38.894416" lon="-77.039472" />
      <trkpt lat="38.894344" lon="-77.039473" />
      <trkpt lat="38.894258" lon="-77.039473" />
      <trkpt lat="38.893551" lon="-77.039472" />
      <trkpt lat="38.893479" lon="-77.039472" />
      <trkpt lat="38.893375" lon="-77.039472" />
      <trkpt lat="38.892861" lon="-77.039472" />
      <trkpt lat="38.892348" lon="-77.039478" />
      <trkpt lat="38.892263" lon="-77.039478" />
      <trkpt lat="38.892105" lon="-77.039477" />
      <trkpt lat="38.892105" lon="-77.039327" />
      <trkpt lat="38.892107" lon="-77.036675" />
      <trkpt lat="38.892107" lon="-77.036598" />
      <trkpt lat="38.892107" lon="-77.036517" />
      <trkpt lat="38.892107" lon="-77.036426" />
      <trkpt lat="38.892102" lon="-77.035148" />
      <trkpt lat="38.892102" lon="-77.034962" />
      <trkpt lat="38.892102" lon="-77.034603" />
      <trkpt lat="38.892101" lon="-77.033834" />
      <trkpt lat="38.892102" lon="-77.033727" />
      <trkpt lat="38.892102" lon="-77.033639" />
      <trkpt lat="38.892102" lon="-77.033468" />
      <trkpt lat="38.8921" lon="-77.032609" />
      <trkpt lat="38.892102" lon="-77.032116" />
      <trkpt lat="38.892099" lon="-77.03196" />
      <trkpt lat="38.8921" lon="-77.031793" />
      <trkpt lat="38.892099" lon="-77.031731" />
      <trkpt lat="38.892098" lon="-77.030399" />
      <trkpt lat="38.892096" lon="-77.029665" />
      <trkpt lat="38.892094" lon="-77.028974" />
      <trkpt lat="38.892093" lon="-77.028355" />
      <trkpt lat="38.892093" lon="-77.028301" />
      <trkpt lat="38.892092" lon="-77.028135" />
      <trkpt lat="38.892092" lon="-77.027918" />
      <trkpt lat="38.892092" lon="-77.027654" />
      <trkpt lat="38.89209" lon="-77.027048" />
      <trkpt lat="38.892089" lon="-77.02619" />
      <trkpt lat="38.892088" lon="-77.026043" />
      <trkpt lat="38.892088" lon="-77.025909" />
      <trkpt lat="38.892089" lon="-77.025892" />
      <trkpt lat="38.892088" lon="-77.025768" />
      <trkpt lat="38.892086" lon="-77.024922" />
      <trkpt lat="38.892085" lon="-77.024389" />
      <trkpt lat="38.892085" lon="-77.024105" />
      <trkpt lat="38.892084" lon="-77.023965" />
      <trkpt lat="38.892085" lon="-77.02382" />
      <trkpt lat="38.892084" lon="-77.023446" />
      <trkpt lat="38.892082" lon="-77.022088" />
      <trkpt lat="38.892082" lon="-77.021915" />
      <trkpt lat="38.892081" lon="-77.021745" />
      <trkpt lat="38.892081" lon="-77.021022" />
      <trkpt lat="38.89208" lon="-77.020299" />
      <trkpt lat="38.892079" lon="-77.019906" />
      <trkpt lat="38.892078" lon="-77.019725" />
      <trkpt lat="38.892078" lon="-77.019502" />
      <trkpt lat="38.892079" lon="-77.019309" />
      <trkpt lat="38.892082" lon="-77.019233" />
      <trkpt lat="38.892092" lon="-77.019151" />
      <trkpt lat="38.892108" lon="-77.019072" />
      <trkpt lat="38.892127" lon="-77.019002" />
      <trkpt lat="38.892154" lon="-77.018916" />
      <trkpt lat="38.892182" lon="-77.018684" />
      <trkpt lat="38.892218" lon="-77.018628" />
      <trkpt lat="38.892287" lon="-77.018547" />
      <trkpt lat="38.89225" lon="-77.018429" />
      <trkpt lat="38.892048" lon="-77.017699" />
      <trkpt lat="38.89204" lon="-77.017671" />
      <trkpt lat="38.892027" lon="-77.017617" />
      <trkpt lat="38.892021" lon="-77.017593" />
      <trkpt lat="38.892003" lon="-77.017517" />
      <trkpt lat="38.891999" lon="-77.017499" />
      <trkpt lat="38.891967" lon="-77.017362" />
      <trkpt lat="38.891765" lon="-77.016624" />
      <trkpt lat="38.891737" lon="-77.016524" />
      <trkpt lat="38.891715" lon="-77.016445" />
      <trkpt lat="38.891779" lon="-77.016336" />
      <trkpt lat="38.891793" lon="-77.016304" />
      <trkpt lat="38.891836" lon="-77.016212" />
      <trkpt lat="38.891887" lon="-77.016084" />
      <trkpt lat="38.891963" lon="-77.015857" />
      <trkpt lat="38.891996" lon="-77.015737" />
      <trkpt lat="38.892022" lon="-77.015619" />
      <trkpt lat="38.892031" lon="-77.015544" />
      <trkpt lat="38.892036" lon="-77.015448" />
      <trkpt lat="38.892048" lon="-77.01539" />
      <trkpt lat="38.892093" lon="-77.015218" />
      <trkpt lat="38.892092" lon="-77.015029" />
      <trkpt lat="38.892095" lon="-77.014659" />
      <trkpt lat="38.892094" lon="-77.014216" />
      <trkpt lat="38.892091" lon="-77.013636" />
      <trkpt lat="38.892088" lon="-77.013328" />
      <trkpt lat="38.892105" lon="-77.013264" />
      <trkpt lat="38.892131" lon="-77.013198" />
      <trkpt lat="38.892156" lon="-77.013149" />
      <trkpt lat="38.892183" lon="-77.013102" />
      <trkpt lat="38.892218" lon="-77.013054" />
      <trkpt lat="38.892259" lon="-77.012993" />
      <trkpt lat="38.89249" lon="-77.012695" />
      <trkpt lat="38.892763" lon="-77.012304" />
      <trkpt lat="38.892866" lon="-77.012166" />
      <trkpt lat="38.892966" lon="-77.012032" />
      <trkpt lat="38.893102" lon="-77.011843" />
      <trkpt lat="38.893452" lon="-77.011358" />
      <trkpt lat="38.893579" lon="-77.011193" />
      <trkpt lat="38.893584" lon="-77.010922" />
      <trkpt lat="38.893589" lon="-77.010676" />
      <trkpt lat="38.893609" lon="-77.010532" />
      <trkpt lat="38.893444" lon="-77.010471" />
      <trkpt lat="38.89342" lon="-77.010462" />
      <trkpt lat="38.893374" lon="-77.010446" />
      <trkpt lat="38.893103" lon="-77.010346" />
      <trkpt lat="38.893102" lon="-77.010244" />
      <trkpt lat="38.893092" lon="-77.010204" />
      <trkpt lat="38.893056" lon="-77.010145" />
      <trkpt lat="38.892943" lon="-77.010105" />
      <trkpt lat="38.892762" lon="-77.010039" />
      <trkpt lat="38.892438" lon="-77.009919" />
      <trkpt lat="38.892008" lon="-77.009757" />
      <trkpt lat="38.89195" lon="-77.009723" />
      <trkpt lat="38.891904" lon="-77.009678" />
      <trkpt lat="38.891856" lon="-77.009614" />
      <trkpt lat="38.891815" lon="-77.009536" />
      <trkpt lat="38.891476" lon="-77.008603" />
      <trkpt lat="38.891399" lon="-77.008446" />
      <trkpt lat="38.891315" lon="-77.008337" />
      <trkpt lat="38.891195" lon="-77.00825" />
      <trkpt lat="38.891074" lon="-77.008211" />
      <trkpt lat="38.890895" lon="-77.008202" />
    </trkseg>
  </trk>
</gpx>
